STARLINK-36330          
1 67737U 26026S   26067.50002314 -.01803539  00000+0 -30689-1 0  9999
2 67737  97.2845 122.0854 0001618  90.8865 176.6519 15.54652579  5123
STARLINK-36327          
1 67738U 26026T   26067.50002314 -.01800892  00000+0 -30308-1 0  9997
2 67738  97.2842 122.0917 0001715  85.1296 196.8505 15.54945740  5128
STARLINK-36329          
1 67739U 26026U   26067.50002314 -.01856078  00000+0 -30153-1 0  9993
2 67739  97.2841 122.1185 0001387  74.7539 277.7058 15.56006049  5129
STARLINK-36737          
1 67740U 26026V   26067.50002314 -.01860801  00000+0 -31240-1 0  9992
2 67740  97.2845 122.0936 0001463  88.5080 205.6170 15.55126407  5122
STARLINK-36740          
1 67741U 26026W   26067.50002314 -.01822878  00000+0 -35622-1 0  9993
2 67741  97.2846 122.0642 0001665  83.1014 138.8376 15.50871862  5122
STARLINK-36693          
1 67742U 26026X   26067.50002314 -.01696936  00000+0 -32141-1 0  9991
2 67742  97.2844 122.0624 0001807  81.1122 135.3930 15.51499415  5261
STARLINK-36717          
1 67743U 26026Y   26067.50002314 -.01808843  00000+0 -31985-1 0  9999
2 67743  97.2843 122.0923 0001657  86.5838 196.3481 15.53613020  5269
STARLINK-36692          
1 67744U 26026Z   26067.50002314 -.01809290  00000+0 -33467-1 0  9994
2 67744  97.2843 122.0764 0001706  84.9848 161.1755 15.52373257  5124
2026-027A               
1 67746U 26027A   26067.51669263  .00013182  00000+0  65610-3 0  9991
2 67746  97.4901 196.5419 0010101 198.6866 161.3998 15.17684327  3682
2026-027B               
1 67747U 26027B   26067.51508137  .00013218  00000+0  65598-3 0  9999
2 67747  97.4896 196.5423 0010217 201.3100 158.7710 15.17784236  3684
2026-027C               
1 67748U 26027C   26067.51366572  .00009338  00000+0  46444-3 0  9992
2 67748  97.4909 196.5479 0010583 203.3888 156.6866 15.17797001  3685
2026-027D               
1 67749U 26027D   26067.51005053  .00016017  00000+0  78577-3 0  9991
2 67749  97.4903 196.5513 0010215 208.7835 151.2836 15.18142755  3636
