CCSDS_OMM_VERS = 2.0
CREATION_DATE  = 
ORIGINATOR     = 

OBJECT_NAME    = STARLINK-36330
OBJECT_ID      = 2026-026S
CENTER_NAME    = EARTH
REF_FRAME      = TEME
TIME_SYSTEM    = UTC
MEAN_ELEMENT_THEORY = SGP/SGP4

EPOCH          = 2026-03-08T12:00:01.999296
MEAN_MOTION    = 15.54652579
ECCENTRICITY   = .0001618
INCLINATION    = 97.2845
RA_OF_ASC_NODE = 122.0854
ARG_OF_PERICENTER = 90.8865
MEAN_ANOMALY   = 176.6519

EPHEMERIS_TYPE = 0
CLASSIFICATION_TYPE = U
NORAD_CAT_ID   = 67737
ELEMENT_SET_NO = 999
REV_AT_EPOCH   = 512
BSTAR          = -.30689E-1
MEAN_MOTION_DOT = -.1803539E-1
MEAN_MOTION_DDOT = 0

CCSDS_OMM_VERS = 2.0
CREATION_DATE  = 
ORIGINATOR     = 

OBJECT_NAME    = STARLINK-36327
OBJECT_ID      = 2026-026T
CENTER_NAME    = EARTH
REF_FRAME      = TEME
TIME_SYSTEM    = UTC
MEAN_ELEMENT_THEORY = SGP/SGP4

EPOCH          = 2026-03-08T12:00:01.999296
MEAN_MOTION    = 15.54945740
ECCENTRICITY   = .0001715
INCLINATION    = 97.2842
RA_OF_ASC_NODE = 122.0917
ARG_OF_PERICENTER = 85.1296
MEAN_ANOMALY   = 196.8505

EPHEMERIS_TYPE = 0
CLASSIFICATION_TYPE = U
NORAD_CAT_ID   = 67738
ELEMENT_SET_NO = 999
REV_AT_EPOCH   = 512
BSTAR          = -.30308E-1
MEAN_MOTION_DOT = -.1800892E-1
MEAN_MOTION_DDOT = 0

CCSDS_OMM_VERS = 2.0
CREATION_DATE  = 
ORIGINATOR     = 

OBJECT_NAME    = STARLINK-36329
OBJECT_ID      = 2026-026U
CENTER_NAME    = EARTH
REF_FRAME      = TEME
TIME_SYSTEM    = UTC
MEAN_ELEMENT_THEORY = SGP/SGP4

EPOCH          = 2026-03-08T12:00:01.999296
MEAN_MOTION    = 15.56006049
ECCENTRICITY   = .0001387
INCLINATION    = 97.2841
RA_OF_ASC_NODE = 122.1185
ARG_OF_PERICENTER = 74.7539
MEAN_ANOMALY   = 277.7058

EPHEMERIS_TYPE = 0
CLASSIFICATION_TYPE = U
NORAD_CAT_ID   = 67739
ELEMENT_SET_NO = 999
REV_AT_EPOCH   = 512
BSTAR          = -.30153E-1
MEAN_MOTION_DOT = -.1856078E-1
MEAN_MOTION_DDOT = 0

CCSDS_OMM_VERS = 2.0
CREATION_DATE  = 
ORIGINATOR     = 

OBJECT_NAME    = STARLINK-36737
OBJECT_ID      = 2026-026V
CENTER_NAME    = EARTH
REF_FRAME      = TEME
TIME_SYSTEM    = UTC
MEAN_ELEMENT_THEORY = SGP/SGP4

EPOCH          = 2026-03-08T12:00:01.999296
MEAN_MOTION    = 15.55126407
ECCENTRICITY   = .0001463
INCLINATION    = 97.2845
RA_OF_ASC_NODE = 122.0936
ARG_OF_PERICENTER = 88.5080
MEAN_ANOMALY   = 205.6170

EPHEMERIS_TYPE = 0
CLASSIFICATION_TYPE = U
NORAD_CAT_ID   = 67740
ELEMENT_SET_NO = 999
REV_AT_EPOCH   = 512
BSTAR          = -.3124E-1
MEAN_MOTION_DOT = -.1860801E-1
MEAN_MOTION_DDOT = 0

CCSDS_OMM_VERS = 2.0
CREATION_DATE  = 
ORIGINATOR     = 

OBJECT_NAME    = STARLINK-36740
OBJECT_ID      = 2026-026W
CENTER_NAME    = EARTH
REF_FRAME      = TEME
TIME_SYSTEM    = UTC
MEAN_ELEMENT_THEORY = SGP/SGP4

EPOCH          = 2026-03-08T12:00:01.999296
MEAN_MOTION    = 15.50871862
ECCENTRICITY   = .0001665
INCLINATION    = 97.2846
RA_OF_ASC_NODE = 122.0642
ARG_OF_PERICENTER = 83.1014
MEAN_ANOMALY   = 138.8376

EPHEMERIS_TYPE = 0
CLASSIFICATION_TYPE = U
NORAD_CAT_ID   = 67741
ELEMENT_SET_NO = 999
REV_AT_EPOCH   = 512
BSTAR          = -.35622E-1
MEAN_MOTION_DOT = -.1822878E-1
MEAN_MOTION_DDOT = 0

CCSDS_OMM_VERS = 2.0
CREATION_DATE  = 
ORIGINATOR     = 

OBJECT_NAME    = STARLINK-36693
OBJECT_ID      = 2026-026X
CENTER_NAME    = EARTH
REF_FRAME      = TEME
TIME_SYSTEM    = UTC
MEAN_ELEMENT_THEORY = SGP/SGP4

EPOCH          = 2026-03-08T12:00:01.999296
MEAN_MOTION    = 15.51499415
ECCENTRICITY   = .0001807
INCLINATION    = 97.2844
RA_OF_ASC_NODE = 122.0624
ARG_OF_PERICENTER = 81.1122
MEAN_ANOMALY   = 135.3930

EPHEMERIS_TYPE = 0
CLASSIFICATION_TYPE = U
NORAD_CAT_ID   = 67742
ELEMENT_SET_NO = 999
REV_AT_EPOCH   = 526
BSTAR          = -.32141E-1
MEAN_MOTION_DOT = -.1696936E-1
MEAN_MOTION_DDOT = 0

CCSDS_OMM_VERS = 2.0
CREATION_DATE  = 
ORIGINATOR     = 

OBJECT_NAME    = STARLINK-36717
OBJECT_ID      = 2026-026Y
CENTER_NAME    = EARTH
REF_FRAME      = TEME
TIME_SYSTEM    = UTC
MEAN_ELEMENT_THEORY = SGP/SGP4

EPOCH          = 2026-03-08T12:00:01.999296
MEAN_MOTION    = 15.53613020
ECCENTRICITY   = .0001657
INCLINATION    = 97.2843
RA_OF_ASC_NODE = 122.0923
ARG_OF_PERICENTER = 86.5838
MEAN_ANOMALY   = 196.3481

EPHEMERIS_TYPE = 0
CLASSIFICATION_TYPE = U
NORAD_CAT_ID   = 67743
ELEMENT_SET_NO = 999
REV_AT_EPOCH   = 526
BSTAR          = -.31985E-1
MEAN_MOTION_DOT = -.1808843E-1
MEAN_MOTION_DDOT = 0

CCSDS_OMM_VERS = 2.0
CREATION_DATE  = 
ORIGINATOR     = 

OBJECT_NAME    = STARLINK-36692
OBJECT_ID      = 2026-026Z
CENTER_NAME    = EARTH
REF_FRAME      = TEME
TIME_SYSTEM    = UTC
MEAN_ELEMENT_THEORY = SGP/SGP4

EPOCH          = 2026-03-08T12:00:01.999296
MEAN_MOTION    = 15.52373257
ECCENTRICITY   = .0001706
INCLINATION    = 97.2843
RA_OF_ASC_NODE = 122.0764
ARG_OF_PERICENTER = 84.9848
MEAN_ANOMALY   = 161.1755

EPHEMERIS_TYPE = 0
CLASSIFICATION_TYPE = U
NORAD_CAT_ID   = 67744
ELEMENT_SET_NO = 999
REV_AT_EPOCH   = 512
BSTAR          = -.33467E-1
MEAN_MOTION_DOT = -.180929E-1
MEAN_MOTION_DDOT = 0

CCSDS_OMM_VERS = 2.0
CREATION_DATE  = 
ORIGINATOR     = 

OBJECT_NAME    = 2026-027A
OBJECT_ID      = 2026-027A
CENTER_NAME    = EARTH
REF_FRAME      = TEME
TIME_SYSTEM    = UTC
MEAN_ELEMENT_THEORY = SGP/SGP4

EPOCH          = 2026-03-08T12:24:02.243232
MEAN_MOTION    = 15.17684327
ECCENTRICITY   = .0010101
INCLINATION    = 97.4901
RA_OF_ASC_NODE = 196.5419
ARG_OF_PERICENTER = 198.6866
MEAN_ANOMALY   = 161.3998

EPHEMERIS_TYPE = 0
CLASSIFICATION_TYPE = U
NORAD_CAT_ID   = 67746
ELEMENT_SET_NO = 999
REV_AT_EPOCH   = 368
BSTAR          = .6561E-3
MEAN_MOTION_DOT = .13182E-3
MEAN_MOTION_DDOT = 0

CCSDS_OMM_VERS = 2.0
CREATION_DATE  = 
ORIGINATOR     = 

OBJECT_NAME    = 2026-027B
OBJECT_ID      = 2026-027B
CENTER_NAME    = EARTH
REF_FRAME      = TEME
TIME_SYSTEM    = UTC
MEAN_ELEMENT_THEORY = SGP/SGP4

EPOCH          = 2026-03-08T12:21:43.030368
MEAN_MOTION    = 15.17784236
ECCENTRICITY   = .0010217
INCLINATION    = 97.4896
RA_OF_ASC_NODE = 196.5423
ARG_OF_PERICENTER = 201.3100
MEAN_ANOMALY   = 158.7710

EPHEMERIS_TYPE = 0
CLASSIFICATION_TYPE = U
NORAD_CAT_ID   = 67747
ELEMENT_SET_NO = 999
REV_AT_EPOCH   = 368
BSTAR          = .65598E-3
MEAN_MOTION_DOT = .13218E-3
MEAN_MOTION_DDOT = 0

CCSDS_OMM_VERS = 2.0
CREATION_DATE  = 
ORIGINATOR     = 

OBJECT_NAME    = 2026-027C
OBJECT_ID      = 2026-027C
CENTER_NAME    = EARTH
REF_FRAME      = TEME
TIME_SYSTEM    = UTC
MEAN_ELEMENT_THEORY = SGP/SGP4

EPOCH          = 2026-03-08T12:19:40.718208
MEAN_MOTION    = 15.17797001
ECCENTRICITY   = .0010583
INCLINATION    = 97.4909
RA_OF_ASC_NODE = 196.5479
ARG_OF_PERICENTER = 203.3888
MEAN_ANOMALY   = 156.6866

EPHEMERIS_TYPE = 0
CLASSIFICATION_TYPE = U
NORAD_CAT_ID   = 67748
ELEMENT_SET_NO = 999
REV_AT_EPOCH   = 368
BSTAR          = .46444E-3
MEAN_MOTION_DOT = .9338E-4
MEAN_MOTION_DDOT = 0

CCSDS_OMM_VERS = 2.0
CREATION_DATE  = 
ORIGINATOR     = 

OBJECT_NAME    = 2026-027D
OBJECT_ID      = 2026-027D
CENTER_NAME    = EARTH
REF_FRAME      = TEME
TIME_SYSTEM    = UTC
MEAN_ELEMENT_THEORY = SGP/SGP4

EPOCH          = 2026-03-08T12:14:28.365792
MEAN_MOTION    = 15.18142755
ECCENTRICITY   = .0010215
INCLINATION    = 97.4903
RA_OF_ASC_NODE = 196.5513
ARG_OF_PERICENTER = 208.7835
MEAN_ANOMALY   = 151.2836

EPHEMERIS_TYPE = 0
CLASSIFICATION_TYPE = U
NORAD_CAT_ID   = 67749
ELEMENT_SET_NO = 999
REV_AT_EPOCH   = 363
BSTAR          = .78577E-3
MEAN_MOTION_DOT = .16017E-3
MEAN_MOTION_DDOT = 0

